ONEWEB-0348             
1 49213U 21083AD  26055.16074965  .00000127  00000+0  28069-3 0  9996
2 49213  87.9194 297.0044 0002010  69.2587 290.8762 13.20771434221893
ONEWEB-0350             
1 49214U 21083AE  26055.22549943  .00000062  00000+0  13500-3 0  9999
2 49214  87.9039 342.6814 0002119  77.1526 282.9840 13.13469657216105
ONEWEB-0351             
1 49215U 21083AF  26055.23006530  .00000081  00000+0  16810-3 0  9999
2 49215  87.9194 296.9886 0002011 107.6386 252.4967 13.20772213221866
ONEWEB-0352             
1 49216U 21083AG  26055.28221253 -.00000405  00000+0 -11452-2 0  9994
2 49216  87.9034 342.6870 0001833  92.4075 267.7264 13.13471480216204
ONEWEB-0354             
1 49217U 21083AH  26055.17968456  .00000027  00000+0  33579-4 0  9990
2 49217  87.9193 296.9981 0001922  77.4877 282.6472 13.20772353221896
ONEWEB-0355             
1 49218U 21083AJ  26055.23493400 -.00000010  00000+0 -61284-4 0  9998
2 49218  87.9028 342.7075 0001966  83.6845 276.4508 13.13470122216076
ONEWEB-0357             
1 49219U 21083AK  26055.10077226  .00000070  00000+0  13902-3 0  9996
2 49219  87.9191 297.0086 0001660  87.5464 272.5860 13.20771572221887
ONEWEB-0332             
1 49279U 21090A   26055.25982925 -.00000009  00000+0 -57944-4 0  9996
2 49279  87.8999 312.2357 0001508  84.9981 275.1321 13.14501268212747
ONEWEB-0347             
1 49280U 21090B   26055.16705390  .00000146  00000+0  32788-3 0  9995
2 49280  87.9194 297.0041 0001335  83.5643 276.5642 13.20773013216128
ONEWEB-0349             
1 49281U 21090C   26055.19863235  .00000009  00000+0 -99513-5 0  9992
2 49281  87.9193 296.9975 0001647  81.5289 278.6031 13.20772135214916
ONEWEB-0353             
1 49282U 21090D   26055.25190273  .00000139  00000+0  34043-3 0  9993
2 49282  87.9008 312.2307 0001406  83.5311 276.5979 13.14501236212746
ONEWEB-0356             
1 49283U 21090E   26055.19704202  .00000030  00000+0  43041-4 0  9999
2 49283  87.9194 296.9914 0001247  48.8278 311.2963 13.20772536214915
ONEWEB-0358             
1 49284U 21090F   26055.22703884  .00000152  00000+0  34256-3 0  9991
2 49284  87.9190 296.9881 0001678  77.0138 283.1182 13.20771757215647
ONEWEB-0359             
1 49285U 21090G   26055.22387723  .00000112  00000+0  24309-3 0  9996
2 49285  87.9195 296.9857 0001865  76.5449 283.5892 13.20774272215628
ONEWEB-0360             
1 49286U 21090H   26055.21440439  .00000063  00000+0  12334-3 0  9990
2 49286  87.9191 296.9947 0001760  80.0208 280.1124 13.20772953214930
ONEWEB-0361             
1 49287U 21090J   26055.19546923 -.00000019  00000+0 -79125-4 0  9998
2 49287  87.9190 296.9957 0001587  75.1538 284.9771 13.20772239215386
