[{"OBJECT_NAME":"ONEWEB-0348","OBJECT_ID":"2021-083AD","EPOCH":"2026-02-24T03:51:28.769760","MEAN_MOTION":13.20771434,"ECCENTRICITY":0.00020105,"INCLINATION":87.9194,"RA_OF_ASC_NODE":297.0044,"ARG_OF_PERICENTER":69.2587,"MEAN_ANOMALY":290.8762,"EPHEMERIS_TYPE":0,"CLASSIFICATION_TYPE":"U","NORAD_CAT_ID":49213,"ELEMENT_SET_NO":999,"REV_AT_EPOCH":22189,"BSTAR":0.00028069435,"MEAN_MOTION_DOT":1.27e-6,"MEAN_MOTION_DDOT":0},{"OBJECT_NAME":"ONEWEB-0350","OBJECT_ID":"2021-083AE","EPOCH":"2026-02-24T05:24:43.150752","MEAN_MOTION":13.13469657,"ECCENTRICITY":0.00021195,"INCLINATION":87.9039,"RA_OF_ASC_NODE":342.6814,"ARG_OF_PERICENTER":77.1526,"MEAN_ANOMALY":282.984,"EPHEMERIS_TYPE":0,"CLASSIFICATION_TYPE":"U","NORAD_CAT_ID":49214,"ELEMENT_SET_NO":999,"REV_AT_EPOCH":21610,"BSTAR":0.00013499773,"MEAN_MOTION_DOT":6.2e-7,"MEAN_MOTION_DDOT":0},{"OBJECT_NAME":"ONEWEB-0351","OBJECT_ID":"2021-083AF","EPOCH":"2026-02-24T05:31:17.641920","MEAN_MOTION":13.20772213,"ECCENTRICITY":0.00020113,"INCLINATION":87.9194,"RA_OF_ASC_NODE":296.9886,"ARG_OF_PERICENTER":107.6386,"MEAN_ANOMALY":252.4967,"EPHEMERIS_TYPE":0,"CLASSIFICATION_TYPE":"U","NORAD_CAT_ID":49215,"ELEMENT_SET_NO":999,"REV_AT_EPOCH":22186,"BSTAR":0.00016809618,"MEAN_MOTION_DOT":8.1e-7,"MEAN_MOTION_DDOT":0},{"OBJECT_NAME":"ONEWEB-0352","OBJECT_ID":"2021-083AG","EPOCH":"2026-02-24T06:46:23.162592","MEAN_MOTION":13.1347148,"ECCENTRICITY":0.00018332,"INCLINATION":87.9034,"RA_OF_ASC_NODE":342.687,"ARG_OF_PERICENTER":92.4075,"MEAN_ANOMALY":267.7264,"EPHEMERIS_TYPE":0,"CLASSIFICATION_TYPE":"U","NORAD_CAT_ID":49216,"ELEMENT_SET_NO":999,"REV_AT_EPOCH":21620,"BSTAR":-0.0011451549,"MEAN_MOTION_DOT":-4.05e-6,"MEAN_MOTION_DDOT":0},{"OBJECT_NAME":"ONEWEB-0354","OBJECT_ID":"2021-083AH","EPOCH":"2026-02-24T04:18:44.745984","MEAN_MOTION":13.20772353,"ECCENTRICITY":0.00019226,"INCLINATION":87.9193,"RA_OF_ASC_NODE":296.9981,"ARG_OF_PERICENTER":77.4877,"MEAN_ANOMALY":282.6472,"EPHEMERIS_TYPE":0,"CLASSIFICATION_TYPE":"U","NORAD_CAT_ID":49217,"ELEMENT_SET_NO":999,"REV_AT_EPOCH":22189,"BSTAR":3.3579169e-5,"MEAN_MOTION_DOT":2.7e-7,"MEAN_MOTION_DDOT":0},{"OBJECT_NAME":"ONEWEB-0355","OBJECT_ID":"2021-083AJ","EPOCH":"2026-02-24T05:38:18.297600","MEAN_MOTION":13.13470122,"ECCENTRICITY":0.00019661,"INCLINATION":87.9028,"RA_OF_ASC_NODE":342.7075,"ARG_OF_PERICENTER":83.6845,"MEAN_ANOMALY":276.4508,"EPHEMERIS_TYPE":0,"CLASSIFICATION_TYPE":"U","NORAD_CAT_ID":49218,"ELEMENT_SET_NO":999,"REV_AT_EPOCH":21607,"BSTAR":-6.128438e-5,"MEAN_MOTION_DOT":-1.0e-7,"MEAN_MOTION_DDOT":0},{"OBJECT_NAME":"ONEWEB-0357","OBJECT_ID":"2021-083AK","EPOCH":"2026-02-24T02:25:06.723264","MEAN_MOTION":13.20771572,"ECCENTRICITY":0.00016601,"INCLINATION":87.9191,"RA_OF_ASC_NODE":297.0086,"ARG_OF_PERICENTER":87.5464,"MEAN_ANOMALY":272.586,"EPHEMERIS_TYPE":0,"CLASSIFICATION_TYPE":"U","NORAD_CAT_ID":49219,"ELEMENT_SET_NO":999,"REV_AT_EPOCH":22188,"BSTAR":0.00013902248,"MEAN_MOTION_DOT":7.0e-7,"MEAN_MOTION_DDOT":0},{"OBJECT_NAME":"ONEWEB-0332","OBJECT_ID":"2021-090A","EPOCH":"2026-02-24T06:14:09.247200","MEAN_MOTION":13.14501268,"ECCENTRICITY":0.00015084,"INCLINATION":87.8999,"RA_OF_ASC_NODE":312.2357,"ARG_OF_PERICENTER":84.9981,"MEAN_ANOMALY":275.1321,"EPHEMERIS_TYPE":0,"CLASSIFICATION_TYPE":"U","NORAD_CAT_ID":49279,"ELEMENT_SET_NO":999,"REV_AT_EPOCH":21274,"BSTAR":-5.7943616e-5,"MEAN_MOTION_DOT":-9.0e-8,"MEAN_MOTION_DDOT":0},{"OBJECT_NAME":"ONEWEB-0347","OBJECT_ID":"2021-090B","EPOCH":"2026-02-24T04:00:33.456960","MEAN_MOTION":13.20773013,"ECCENTRICITY":0.00013353,"INCLINATION":87.9194,"RA_OF_ASC_NODE":297.0041,"ARG_OF_PERICENTER":83.5643,"MEAN_ANOMALY":276.5642,"EPHEMERIS_TYPE":0,"CLASSIFICATION_TYPE":"U","NORAD_CAT_ID":49280,"ELEMENT_SET_NO":999,"REV_AT_EPOCH":21612,"BSTAR":0.00032788087,"MEAN_MOTION_DOT":1.46e-6,"MEAN_MOTION_DDOT":0},{"OBJECT_NAME":"ONEWEB-0349","OBJECT_ID":"2021-090C","EPOCH":"2026-02-24T04:46:01.835040","MEAN_MOTION":13.20772135,"ECCENTRICITY":0.00016473,"INCLINATION":87.9193,"RA_OF_ASC_NODE":296.9975,"ARG_OF_PERICENTER":81.5289,"MEAN_ANOMALY":278.6031,"EPHEMERIS_TYPE":0,"CLASSIFICATION_TYPE":"U","NORAD_CAT_ID":49281,"ELEMENT_SET_NO":999,"REV_AT_EPOCH":21491,"BSTAR":-9.951281e-6,"MEAN_MOTION_DOT":9.0e-8,"MEAN_MOTION_DDOT":0},{"OBJECT_NAME":"ONEWEB-0353","OBJECT_ID":"2021-090D","EPOCH":"2026-02-24T06:02:44.395872","MEAN_MOTION":13.14501236,"ECCENTRICITY":0.00014062,"INCLINATION":87.9008,"RA_OF_ASC_NODE":312.2307,"ARG_OF_PERICENTER":83.5311,"MEAN_ANOMALY":276.5979,"EPHEMERIS_TYPE":0,"CLASSIFICATION_TYPE":"U","NORAD_CAT_ID":49282,"ELEMENT_SET_NO":999,"REV_AT_EPOCH":21274,"BSTAR":0.00034043177,"MEAN_MOTION_DOT":1.39e-6,"MEAN_MOTION_DDOT":0},{"OBJECT_NAME":"ONEWEB-0356","OBJECT_ID":"2021-090E","EPOCH":"2026-02-24T04:43:44.430528","MEAN_MOTION":13.20772536,"ECCENTRICITY":0.00012471,"INCLINATION":87.9194,"RA_OF_ASC_NODE":296.9914,"ARG_OF_PERICENTER":48.8278,"MEAN_ANOMALY":311.2963,"EPHEMERIS_TYPE":0,"CLASSIFICATION_TYPE":"U","NORAD_CAT_ID":49283,"ELEMENT_SET_NO":999,"REV_AT_EPOCH":21491,"BSTAR":4.3040511e-5,"MEAN_MOTION_DOT":3.0e-7,"MEAN_MOTION_DDOT":0},{"OBJECT_NAME":"ONEWEB-0358","OBJECT_ID":"2021-090F","EPOCH":"2026-02-24T05:26:56.155776","MEAN_MOTION":13.20771757,"ECCENTRICITY":0.00016787,"INCLINATION":87.919,"RA_OF_ASC_NODE":296.9881,"ARG_OF_PERICENTER":77.0138,"MEAN_ANOMALY":283.1182,"EPHEMERIS_TYPE":0,"CLASSIFICATION_TYPE":"U","NORAD_CAT_ID":49284,"ELEMENT_SET_NO":999,"REV_AT_EPOCH":21564,"BSTAR":0.00034255521,"MEAN_MOTION_DOT":1.52e-6,"MEAN_MOTION_DDOT":0},{"OBJECT_NAME":"ONEWEB-0359","OBJECT_ID":"2021-090G","EPOCH":"2026-02-24T05:22:22.992672","MEAN_MOTION":13.20774272,"ECCENTRICITY":0.00018655,"INCLINATION":87.9195,"RA_OF_ASC_NODE":296.9857,"ARG_OF_PERICENTER":76.5449,"MEAN_ANOMALY":283.5892,"EPHEMERIS_TYPE":0,"CLASSIFICATION_TYPE":"U","NORAD_CAT_ID":49285,"ELEMENT_SET_NO":999,"REV_AT_EPOCH":21562,"BSTAR":0.00024308931,"MEAN_MOTION_DOT":1.12e-6,"MEAN_MOTION_DDOT":0},{"OBJECT_NAME":"ONEWEB-0360","OBJECT_ID":"2021-090H","EPOCH":"2026-02-24T05:08:44.539296","MEAN_MOTION":13.20772953,"ECCENTRICITY":0.00017602,"INCLINATION":87.9191,"RA_OF_ASC_NODE":296.9947,"ARG_OF_PERICENTER":80.0208,"MEAN_ANOMALY":280.1124,"EPHEMERIS_TYPE":0,"CLASSIFICATION_TYPE":"U","NORAD_CAT_ID":49286,"ELEMENT_SET_NO":999,"REV_AT_EPOCH":21493,"BSTAR":0.0001233365,"MEAN_MOTION_DOT":6.3e-7,"MEAN_MOTION_DDOT":0},{"OBJECT_NAME":"ONEWEB-0361","OBJECT_ID":"2021-090J","EPOCH":"2026-02-24T04:41:28.541472","MEAN_MOTION":13.20772239,"ECCENTRICITY":0.0001587,"INCLINATION":87.919,"RA_OF_ASC_NODE":296.9957,"ARG_OF_PERICENTER":75.1538,"MEAN_ANOMALY":284.9771,"EPHEMERIS_TYPE":0,"CLASSIFICATION_TYPE":"U","NORAD_CAT_ID":49287,"ELEMENT_SET_NO":999,"REV_AT_EPOCH":21538,"BSTAR":-7.9125496e-5,"MEAN_MOTION_DOT":-1.9e-7,"MEAN_MOTION_DDOT":0}]
